COSMOS 2433 (720)       
1 32275U 07052A   24244.30030624 -.00000090  00000+0  00000+0 0  9995
2 32275  65.9051 337.8855 0004265 222.0292 137.9728  2.13104195131101
COSMOS 2432 (719)       
1 32276U 07052B   24243.39053031 -.00000093  00000+0  00000+0 0  9994
2 32276  65.9207 338.0311 0008369 315.7325  12.3216  2.13103228131116
COSMOS 2434 (721)       
1 32393U 07065A   24245.14183823  .00000007  00000+0  00000+0 0  9990
2 32393  64.3214 214.0005 0000501  29.3435 148.5518  2.13101335129863
COSMOS 2436 (723)       
1 32395U 07065C   24244.48441660  .00000011  00000+0  00000+0 0  9999
2 32395  64.3298 214.0880 0016322 354.1146 174.5342  2.13100123129772
COSMOS 2456 (730)       
1 36111U 09070A   24244.70882889  .00000031  00000+0  00000+0 0  9996
2 36111  64.6463  93.3651 0002179 339.6457  20.0106  2.13103899114478
COSMOS 2457 (733)       
1 36112U 09070B   24245.15665061  .00000032  00000+0  00000+0 0  9999
2 36112  64.6314  93.2068 0005582 140.6937 335.9510  2.13101348114530
COSMOS 2460 (732)       
1 36402U 10007C   24245.50228597 -.00000083  00000+0  00000+0 0  9998
2 36402  65.7596 336.4979 0001665 195.7661 178.8986  2.13106359112897
COSMOS 2476 (744)       
1 37867U 11064A   24245.57062020  .00000035  00000+0  00000+0 0  9998
2 37867  64.9188  94.9990 0021530 232.2963 340.7410  2.13101712 99888
COSMOS 2477 (745)       
1 37868U 11064B   24245.28164965  .00000034  00000+0  00000+0 0  9997
2 37868  64.9254  95.0820 0018696 232.7111 297.1260  2.13103198 99817
COSMOS 2475 (743)       
1 37869U 11064C   24243.93035280  .00000026  00000+0  00000+0 0  9996
2 37869  64.9317  95.1433 0023200 249.8240 281.4230  2.13101979 99793
COSMOS 2485 (747)       
1 39155U 13019A   24244.29637043  .00000029  00000+0  00000+0 0  9996
2 39155  65.0749  95.6423 0021980 228.2920 131.6089  2.13101929 88327
COSMOS 2492 (754)       
1 39620U 14012A   24244.25156400 -.00000088  00000+0  00000+0 0  9992
2 39620  65.6413 336.1061 0011481 313.1739  46.7675  2.13103231 81289
COSMOS 2500 (755)       
1 40001U 14032A   24243.49142846 -.00000090  00000+0  00000+0 0  9996
2 40001  65.5787 335.9309 0008443 200.5535 159.4480  2.13106009 79487
COSMOS 2501 (702K)      
1 40315U 14075A   24245.15311339  .00000004  00000+0  00000+0 0  9995
2 40315  63.6225 213.0348 0020762 210.9509 148.9018  2.13101455 75918
COSMOS 2514 (751)       
1 41330U 16008A   24244.19738148 -.00000087  00000+0  00000+0 0  9997
2 41330  65.3726 335.3974 0012319 208.1778 151.7939  2.13102645 66668
COSMOS 2522 (752)       
1 42939U 17055A   24244.97585686  .00000008  00000+0  00000+0 0  9991
2 42939  64.0836 214.1753 0009860 241.5407 118.3366  2.13101979 54038
COSMOS 2527 (756)       
1 43508U 18053A   24244.93534272  .00000033  00000+0  00000+0 0  9992
2 43508  65.2353  95.7885 0007121 218.3155 141.7247  2.13102387 48335
COSMOS 2529 (757)       
1 43687U 18086A   24244.09540838  .00000016  00000+0  00000+0 0  9999
2 43687  64.2991 214.7381 0011319 260.0402  99.8126  2.13102019 45324
COSMOS 2534 (758)       
1 44299U 19030A   24245.45099277  .00000007  00000+0  00000+0 0  9996
2 44299  64.3723 214.6527 0013176 279.5919 174.4636  2.13102132 40989
COSMOS 2544 (759)       
1 44850U 19088A   24243.94091851  .00000027  00000+0  00000+0 0  9996
2 44850  65.2213  95.6574 0011481 250.9220 109.0421  2.13102169 36756
COSMOS 2545 (760)       
1 45358U 20018A   24244.13770733 -.00000088  00000+0  00000+0 0  9998
2 45358  64.7121 335.3492 0010585 236.9503 122.9863  2.13102582 34703
COSMOS 2547 (705K)      
1 46805U 20075A   24245.26296021  .00000007  00000+0  00000+0 0  9997
2 46805  64.6014 214.3231 0008637 241.7420 118.1468  2.13102880 29977
COSMOS 2557 (706K)      
1 52984U 22075A   24245.42858446 -.00000086  00000+0  00000+0 0  9995
2 52984  64.6401 337.4273 0012199 273.4913  86.4086  2.13102382 16776
COSMOS 2559 (707K)      
1 54031U 22130A   24245.37172170 -.00000086  00000+0  00000+0 0  9999
2 54031  64.6119 337.5442 0007641 218.8834 141.1005  2.13101654 14754
COSMOS 2564 (761)       
1 54377U 22161A   24244.62371474  .00000011  00000+0  00000+0 0  9998
2 54377  64.7428 214.4628 0011118 224.7360 135.1529  2.13102137 13686
COSMOS 2569 (703K)      
1 57517U 23114A   24245.10992153  .00000033  00000+0  00000+0 0  9997
2 57517  64.9499  94.7401 0008990 296.3826  63.6156  2.13103942  8320
